CZ-2C R/B               
1 54039U 22132E   26016.26939281  .00021090  00000+0  28915-3 0  9995
2 54039  97.2946  18.1913 0016939 288.1533  71.7878 15.57218632182202
GSLV R/B                
1 54149U 22138AN  26016.16495982  .00001680  00000+0  14542-3 0  9991
2 54149  87.3834 183.9429 0021212 348.7051  11.3701 14.96336880176072
XRISM                   
1 57800U 23137A   26016.06292615  .00003192  00000+0  18194-3 0  9992
2 57800  31.0019 263.8721 0007980 233.3143 126.6762 15.10771455129826
ACS3                    
1 59588U 24077B   26016.10746726  .00006199  00000+0  52323-2 0  9994
2 59588  97.2411 329.0309 0058339 249.9570 109.5306 13.87167011 86903
SZ-21 MODULE            
1 66515U 25246C   26015.77682479  .00021472  00000+0  21926-3 0  9994
2 66515  41.4742 168.0969 0002160 179.3980 180.6863 15.64536487  9776
