CCSDS_OMM_VERS = 2.0
CREATION_DATE  = 
ORIGINATOR     = 

OBJECT_NAME    = CZ-2C R/B
OBJECT_ID      = 2022-132E
CENTER_NAME    = EARTH
REF_FRAME      = TEME
TIME_SYSTEM    = UTC
MEAN_ELEMENT_THEORY = SGP/SGP4

EPOCH          = 2026-01-16T06:27:55.538784
MEAN_MOTION    = 15.57218632
ECCENTRICITY   = .00169394
INCLINATION    = 97.2946
RA_OF_ASC_NODE = 18.1913
ARG_OF_PERICENTER = 288.1533
MEAN_ANOMALY   = 71.7878

EPHEMERIS_TYPE = 0
CLASSIFICATION_TYPE = U
NORAD_CAT_ID   = 54039
ELEMENT_SET_NO = 999
REV_AT_EPOCH   = 18220
BSTAR          = .28914517E-3
MEAN_MOTION_DOT = .2109E-3
MEAN_MOTION_DDOT = 0

CCSDS_OMM_VERS = 2.0
CREATION_DATE  = 
ORIGINATOR     = 

OBJECT_NAME    = GSLV R/B
OBJECT_ID      = 2022-138AN
CENTER_NAME    = EARTH
REF_FRAME      = TEME
TIME_SYSTEM    = UTC
MEAN_ELEMENT_THEORY = SGP/SGP4

EPOCH          = 2026-01-16T03:57:32.528448
MEAN_MOTION    = 14.96336880
ECCENTRICITY   = .00212123
INCLINATION    = 87.3834
RA_OF_ASC_NODE = 183.9429
ARG_OF_PERICENTER = 348.7051
MEAN_ANOMALY   = 11.3701

EPHEMERIS_TYPE = 0
CLASSIFICATION_TYPE = U
NORAD_CAT_ID   = 54149
ELEMENT_SET_NO = 999
REV_AT_EPOCH   = 17607
BSTAR          = .1454153E-3
MEAN_MOTION_DOT = .168E-4
MEAN_MOTION_DDOT = 0

CCSDS_OMM_VERS = 2.0
CREATION_DATE  = 
ORIGINATOR     = 

OBJECT_NAME    = XRISM
OBJECT_ID      = 2023-137A
CENTER_NAME    = EARTH
REF_FRAME      = TEME
TIME_SYSTEM    = UTC
MEAN_ELEMENT_THEORY = SGP/SGP4

EPOCH          = 2026-01-16T01:30:36.819360
MEAN_MOTION    = 15.10771455
ECCENTRICITY   = .00079809
INCLINATION    = 31.0019
RA_OF_ASC_NODE = 263.8721
ARG_OF_PERICENTER = 233.3143
MEAN_ANOMALY   = 126.6762

EPHEMERIS_TYPE = 0
CLASSIFICATION_TYPE = U
NORAD_CAT_ID   = 57800
ELEMENT_SET_NO = 999
REV_AT_EPOCH   = 12982
BSTAR          = .18194256E-3
MEAN_MOTION_DOT = .3192E-4
MEAN_MOTION_DDOT = 0

CCSDS_OMM_VERS = 2.0
CREATION_DATE  = 
ORIGINATOR     = 

OBJECT_NAME    = ACS3
OBJECT_ID      = 2024-077B
CENTER_NAME    = EARTH
REF_FRAME      = TEME
TIME_SYSTEM    = UTC
MEAN_ELEMENT_THEORY = SGP/SGP4

EPOCH          = 2026-01-16T02:34:45.171264
MEAN_MOTION    = 13.87167011
ECCENTRICITY   = .00583391
INCLINATION    = 97.2411
RA_OF_ASC_NODE = 329.0309
ARG_OF_PERICENTER = 249.9570
MEAN_ANOMALY   = 109.5306

EPHEMERIS_TYPE = 0
CLASSIFICATION_TYPE = U
NORAD_CAT_ID   = 59588
ELEMENT_SET_NO = 999
REV_AT_EPOCH   = 8690
BSTAR          = .52322566E-2
MEAN_MOTION_DOT = .6199E-4
MEAN_MOTION_DDOT = 0

CCSDS_OMM_VERS = 2.0
CREATION_DATE  = 
ORIGINATOR     = 

OBJECT_NAME    = SZ-21 MODULE
OBJECT_ID      = 2025-246C
CENTER_NAME    = EARTH
REF_FRAME      = TEME
TIME_SYSTEM    = UTC
MEAN_ELEMENT_THEORY = SGP/SGP4

EPOCH          = 2026-01-15T18:38:37.661856
MEAN_MOTION    = 15.64536487
ECCENTRICITY   = .00021606
INCLINATION    = 41.4742
RA_OF_ASC_NODE = 168.0969
ARG_OF_PERICENTER = 179.3980
MEAN_ANOMALY   = 180.6863

EPHEMERIS_TYPE = 0
CLASSIFICATION_TYPE = U
NORAD_CAT_ID   = 66515
ELEMENT_SET_NO = 999
REV_AT_EPOCH   = 977
BSTAR          = .21926329E-3
MEAN_MOTION_DOT = .21472E-3
MEAN_MOTION_DDOT = 0

